CZ-7 R/B                
1 69050U 26102B   26137.00902244  .01435237  76183-5  54404-3 0  9996
2 69050  41.4943 149.0245 0079489 213.1823 146.4036 16.15400924   960
DRAGON CRS-34           
1 69103U 26107A   26136.10407325  .00322650  11442-4  28729-3 0  9990
2 69103  51.6488  99.3260 0073202 229.8939 129.5643 16.06426992    25
