
    {
        "ARG_OF_PERICENTER": 213.1823,
        "BSTAR": 0.00054404,
        "CLASSIFICATION_TYPE": "U",
        "ECCENTRICITY": 0.0079489,
        "ELEMENT_SET_NO": 999,
        "EPHEMERIS_TYPE": 0,
        "EPOCH": "2026-05-17T00:12:59.538816",
        "INCLINATION": 41.4943,
        "MEAN_ANOMALY": 146.4036,
        "MEAN_MOTION": 16.15400924,
        "MEAN_MOTION_DDOT": 7.6183e-06,
        "MEAN_MOTION_DOT": 0.01435237,
        "NORAD_CAT_ID": 69050,
        "OBJECT_ID": "2026-102B",
        "OBJECT_NAME": "CZ-7 R/B",
        "RA_OF_ASC_NODE": 149.0245,
        "REV_AT_EPOCH": 96
    },
    {
        "ARG_OF_PERICENTER": 229.8939,
        "BSTAR": 0.00028729394,
        "CLASSIFICATION_TYPE": "U",
        "ECCENTRICITY": 0.00732022,
        "ELEMENT_SET_NO": 999,
        "EPHEMERIS_TYPE": 0,
        "EPOCH": "2026-05-16T02:29:51.928800",
        "INCLINATION": 51.6488,
        "MEAN_ANOMALY": 129.5643,
        "MEAN_MOTION": 16.06426992,
        "MEAN_MOTION_DDOT": 1.1442173e-05,
        "MEAN_MOTION_DOT": 0.0032265,
        "NORAD_CAT_ID": 69103,
        "OBJECT_ID": "2026-107A",
        "OBJECT_NAME": "DRAGON CRS-34",
        "RA_OF_ASC_NODE": 99.326,
        "REV_AT_EPOCH": 2
    }